{
  "norad_id": 39190,
  "name": "O3B FM2",
  "history": [
    {
      "epoch": "2026-03-28T16:03:28.308096Z",
      "apogee_km": 8069.933389978519,
      "perigee_km": 8061.830295407769,
      "latitude_deg": 0.01918603171830747,
      "longitude_deg": -66.95415932122476,
      "height_km": 8060.31997498334,
      "semi_major_axis_km": 14444.018842693144,
      "eccentricity": 0.0002805,
      "inclination_deg": 0.0527,
      "raan_deg": 338.9721,
      "arg_perigee_deg": 25.8427,
      "mean_anomaly_deg": 355.1832,
      "mean_motion_rev_day": 5.00115935
    },
    {
      "epoch": "2026-03-29T01:39:09.345024Z",
      "apogee_km": 8069.931232970511,
      "perigee_km": 8061.831027603045,
      "latitude_deg": 0.019243452117999865,
      "longitude_deg": 148.73076366074253,
      "height_km": 8060.323073360198,
      "semi_major_axis_km": 14444.018130286777,
      "eccentricity": 0.0002804,
      "inclination_deg": 0.0526,
      "raan_deg": 338.9765,
      "arg_perigee_deg": 26.2407,
      "mean_anomaly_deg": 354.781,
      "mean_motion_rev_day": 5.00115972
    },
    {
      "epoch": "2026-03-30T01:38:22.053984Z",
      "apogee_km": 8069.929942645674,
      "perigee_km": 8061.832625995484,
      "latitude_deg": 0.01953717412858437,
      "longitude_deg": 147.942833872695,
      "height_km": 8060.33097883364,
      "semi_major_axis_km": 14444.018284320578,
      "eccentricity": 0.0002803,
      "inclination_deg": 0.0524,
      "raan_deg": 338.9727,
      "arg_perigee_deg": 27.1872,
      "mean_anomaly_deg": 353.8392,
      "mean_motion_rev_day": 5.00115964
    },
    {
      "epoch": "2026-03-30T01:38:22.054848Z",
      "apogee_km": 8069.9303759662225,
      "perigee_km": 8061.832192674935,
      "latitude_deg": 0.01953717384924986,
      "longitude_deg": 147.94282988900704,
      "height_km": 8060.330547620085,
      "semi_major_axis_km": 14444.018284320578,
      "eccentricity": 0.00028033,
      "inclination_deg": 0.0524,
      "raan_deg": 338.9727,
      "arg_perigee_deg": 27.1872,
      "mean_anomaly_deg": 353.8392,
      "mean_motion_rev_day": 5.00115964
    },
    {
      "epoch": "2026-04-02T11:11:41.226432Z",
      "apogee_km": 8069.925031623991,
      "perigee_km": 8061.835226510341,
      "latitude_deg": 0.0208603545063098,
      "longitude_deg": 1.2635254071958486,
      "height_km": 8060.365386106388,
      "semi_major_axis_km": 14444.017129067166,
      "eccentricity": 0.00028004,
      "inclination_deg": 0.0518,
      "raan_deg": 339.0596,
      "arg_perigee_deg": 30.4466,
      "mean_anomaly_deg": 350.4966,
      "mean_motion_rev_day": 5.00116024
    },
    {
      "epoch": "2026-04-03T11:10:53.874048Z",
      "apogee_km": 8069.923356065484,
      "perigee_km": 8061.8347070878,
      "latitude_deg": 0.021138063869766185,
      "longitude_deg": 0.4756985604152948,
      "height_km": 8060.3775461669,
      "semi_major_axis_km": 14444.01603157664,
      "eccentricity": 0.00028,
      "inclination_deg": 0.0517,
      "raan_deg": 339.0554,
      "arg_perigee_deg": 31.4742,
      "mean_anomaly_deg": 349.4743,
      "mean_motion_rev_day": 5.00116081
    },
    {
      "epoch": "2026-04-04T20:45:47.682144Z",
      "apogee_km": 8069.881497327794,
      "perigee_km": 8061.877490027987,
      "latitude_deg": 0.021240109445539307,
      "longitude_deg": -144.62764742103872,
      "height_km": 8060.441330204945,
      "semi_major_axis_km": 14444.01649367789,
      "eccentricity": 0.00027707,
      "inclination_deg": 0.0514,
      "raan_deg": 339.0477,
      "arg_perigee_deg": 33.0431,
      "mean_anomaly_deg": 347.9145,
      "mean_motion_rev_day": 5.00116057
    },
    {
      "epoch": "2026-04-07T15:55:35.152320Z",
      "apogee_km": 8069.909181683713,
      "perigee_km": 8061.849420587679,
      "latitude_deg": 0.02082252420994508,
      "longitude_deg": -74.83385110278842,
      "height_km": 8060.439710676765,
      "semi_major_axis_km": 14444.016301135696,
      "eccentricity": 0.000279,
      "inclination_deg": 0.051,
      "raan_deg": 339.0552,
      "arg_perigee_deg": 34.6396,
      "mean_anomaly_deg": 346.3119,
      "mean_motion_rev_day": 5.00116067
    },
    {
      "epoch": "2026-04-08T06:19:06.738816Z",
      "apogee_km": 8069.9101446091,
      "perigee_km": 8061.848072577927,
      "latitude_deg": 0.02069488811327071,
      "longitude_deg": 68.69349700543972,
      "height_km": 8060.445242115594,
      "semi_major_axis_km": 14444.016108593512,
      "eccentricity": 0.00027908,
      "inclination_deg": 0.0509,
      "raan_deg": 339.0211,
      "arg_perigee_deg": 35.0736,
      "mean_anomaly_deg": 345.9123,
      "mean_motion_rev_day": 5.00116077
    },
    {
      "epoch": "2026-04-09T06:18:19.298304Z",
      "apogee_km": 8069.939282959983,
      "perigee_km": 8061.817124330671,
      "latitude_deg": 0.02037312005036787,
      "longitude_deg": 67.9061461647547,
      "height_km": 8060.398964143933,
      "semi_major_axis_km": 14444.015203645327,
      "eccentricity": 0.00028116,
      "inclination_deg": 0.0508,
      "raan_deg": 339.1315,
      "arg_perigee_deg": 33.9815,
      "mean_anomaly_deg": 346.8937,
      "mean_motion_rev_day": 5.00116124
    },
    {
      "epoch": "2026-04-10T01:29:41.444736Z",
      "apogee_km": 8069.958647591958,
      "perigee_km": 8061.7986453926305,
      "latitude_deg": 0.020191984479486218,
      "longitude_deg": 139.27583498345004,
      "height_km": 8060.39062189235,
      "semi_major_axis_km": 14444.015646492295,
      "eccentricity": 0.00028247,
      "inclination_deg": 0.0506,
      "raan_deg": 339.1174,
      "arg_perigee_deg": 34.5808,
      "mean_anomaly_deg": 346.309,
      "mean_motion_rev_day": 5.00116101
    },
    {
      "epoch": "2026-04-11T15:52:25.800672Z",
      "apogee_km": 8069.929981095097,
      "perigee_km": 8061.829776429487,
      "latitude_deg": 0.020058018963294413,
      "longitude_deg": -77.9852631591282,
      "height_km": 8060.462330334824,
      "semi_major_axis_km": 14444.016878762292,
      "eccentricity": 0.0002804,
      "inclination_deg": 0.0503,
      "raan_deg": 339.0925,
      "arg_perigee_deg": 36.9047,
      "mean_anomaly_deg": 344.0114,
      "mean_motion_rev_day": 5.00116037
    }
  ]
}